[{"OBJECT_NAME":"HULIANWANG DIGUI-17","OBJECT_ID":"2025-030G","EPOCH":"2026-03-04T02:01:27.459840","MEAN_MOTION":13.29338127,"ECCENTRICITY":7.34e-5,"INCLINATION":50.0047,"RA_OF_ASC_NODE":252.5304,"ARG_OF_PERICENTER":152.8272,"MEAN_ANOMALY":207.2639,"EPHEMERIS_TYPE":0,"CLASSIFICATION_TYPE":"U","NORAD_CAT_ID":62977,"ELEMENT_SET_NO":999,"REV_AT_EPOCH":5188,"BSTAR":8.0225e-5,"MEAN_MOTION_DOT":-8.7e-7,"MEAN_MOTION_DDOT":0},{"OBJECT_NAME":"HULIANWANG DIGUI-18","OBJECT_ID":"2025-030H","EPOCH":"2026-03-04T01:49:24.009312","MEAN_MOTION":13.29338193,"ECCENTRICITY":7.83e-5,"INCLINATION":50.0051,"RA_OF_ASC_NODE":252.4971,"ARG_OF_PERICENTER":155.968,"MEAN_ANOMALY":204.1229,"EPHEMERIS_TYPE":0,"CLASSIFICATION_TYPE":"U","NORAD_CAT_ID":62978,"ELEMENT_SET_NO":999,"REV_AT_EPOCH":5188,"BSTAR":7.2323e-5,"MEAN_MOTION_DOT":-9.0e-7,"MEAN_MOTION_DDOT":0},{"OBJECT_NAME":"HULIANWANG DIGUI-19","OBJECT_ID":"2025-030J","EPOCH":"2026-03-04T02:37:13.678176","MEAN_MOTION":13.29341291,"ECCENTRICITY":8.0e-5,"INCLINATION":50.0037,"RA_OF_ASC_NODE":252.626,"ARG_OF_PERICENTER":149.6136,"MEAN_ANOMALY":210.4783,"EPHEMERIS_TYPE":0,"CLASSIFICATION_TYPE":"U","NORAD_CAT_ID":62979,"ELEMENT_SET_NO":999,"REV_AT_EPOCH":5188,"BSTAR":9.1551e-5,"MEAN_MOTION_DOT":-8.2e-7,"MEAN_MOTION_DDOT":0},{"OBJECT_NAME":"HULIANWANG DIGUI-20","OBJECT_ID":"2025-086A","EPOCH":"2026-03-04T03:55:57.491040","MEAN_MOTION":13.2442007,"ECCENTRICITY":0.0001712,"INCLINATION":86.5125,"RA_OF_ASC_NODE":348.4967,"ARG_OF_PERICENTER":92.1557,"MEAN_ANOMALY":267.9774,"EPHEMERIS_TYPE":0,"CLASSIFICATION_TYPE":"U","NORAD_CAT_ID":63687,"ELEMENT_SET_NO":999,"REV_AT_EPOCH":4097,"BSTAR":8.6628e-5,"MEAN_MOTION_DOT":5.2e-7,"MEAN_MOTION_DDOT":0},{"OBJECT_NAME":"HULIANWANG DIGUI-21","OBJECT_ID":"2025-086B","EPOCH":"2026-03-04T04:06:44.931168","MEAN_MOTION":13.24421664,"ECCENTRICITY":0.00016,"INCLINATION":86.5153,"RA_OF_ASC_NODE":348.5232,"ARG_OF_PERICENTER":94.744,"MEAN_ANOMALY":265.3877,"EPHEMERIS_TYPE":0,"CLASSIFICATION_TYPE":"U","NORAD_CAT_ID":63688,"ELEMENT_SET_NO":999,"REV_AT_EPOCH":4096,"BSTAR":0.00010373,"MEAN_MOTION_DOT":5.9e-7,"MEAN_MOTION_DDOT":0},{"OBJECT_NAME":"HULIANWANG DIGUI-22","OBJECT_ID":"2025-086C","EPOCH":"2026-03-04T04:17:38.456448","MEAN_MOTION":13.24421341,"ECCENTRICITY":0.0001783,"INCLINATION":86.5118,"RA_OF_ASC_NODE":348.4241,"ARG_OF_PERICENTER":92.3797,"MEAN_ANOMALY":267.7541,"EPHEMERIS_TYPE":0,"CLASSIFICATION_TYPE":"U","NORAD_CAT_ID":63689,"ELEMENT_SET_NO":999,"REV_AT_EPOCH":4096,"BSTAR":0.00012983,"MEAN_MOTION_DOT":7.0e-7,"MEAN_MOTION_DDOT":0},{"OBJECT_NAME":"HULIANWANG DIGUI-23","OBJECT_ID":"2025-086D","EPOCH":"2026-03-04T04:39:19.520352","MEAN_MOTION":13.24422173,"ECCENTRICITY":0.0001735,"INCLINATION":86.516,"RA_OF_ASC_NODE":348.5551,"ARG_OF_PERICENTER":88.4237,"MEAN_ANOMALY":271.7096,"EPHEMERIS_TYPE":0,"CLASSIFICATION_TYPE":"U","NORAD_CAT_ID":63690,"ELEMENT_SET_NO":999,"REV_AT_EPOCH":4096,"BSTAR":0.00019177,"MEAN_MOTION_DOT":9.7e-7,"MEAN_MOTION_DDOT":0},{"OBJECT_NAME":"HULIANWANG DIGUI-24","OBJECT_ID":"2025-086E","EPOCH":"2026-03-04T03:01:29.754048","MEAN_MOTION":13.24420268,"ECCENTRICITY":0.0001761,"INCLINATION":86.5167,"RA_OF_ASC_NODE":348.6045,"ARG_OF_PERICENTER":92.7062,"MEAN_ANOMALY":267.4274,"EPHEMERIS_TYPE":0,"CLASSIFICATION_TYPE":"U","NORAD_CAT_ID":63691,"ELEMENT_SET_NO":999,"REV_AT_EPOCH":4095,"BSTAR":0.00018852,"MEAN_MOTION_DOT":9.6e-7,"MEAN_MOTION_DDOT":0},{"OBJECT_NAME":"HULIANWANG DIGUI-25","OBJECT_ID":"2025-086F","EPOCH":"2026-03-04T03:12:20.623392","MEAN_MOTION":13.2442171,"ECCENTRICITY":0.0001658,"INCLINATION":86.5106,"RA_OF_ASC_NODE":348.4245,"ARG_OF_PERICENTER":91.4686,"MEAN_ANOMALY":268.6638,"EPHEMERIS_TYPE":0,"CLASSIFICATION_TYPE":"U","NORAD_CAT_ID":63692,"ELEMENT_SET_NO":999,"REV_AT_EPOCH":4095,"BSTAR":0.00016631,"MEAN_MOTION_DOT":8.6e-7,"MEAN_MOTION_DDOT":0},{"OBJECT_NAME":"HULIANWANG DIGUI-26","OBJECT_ID":"2025-086G","EPOCH":"2026-03-04T02:39:33.061248","MEAN_MOTION":13.24421154,"ECCENTRICITY":0.0001729,"INCLINATION":86.5154,"RA_OF_ASC_NODE":348.5581,"ARG_OF_PERICENTER":96.9703,"MEAN_ANOMALY":263.1628,"EPHEMERIS_TYPE":0,"CLASSIFICATION_TYPE":"U","NORAD_CAT_ID":63693,"ELEMENT_SET_NO":999,"REV_AT_EPOCH":4095,"BSTAR":0.00015762,"MEAN_MOTION_DOT":8.2e-7,"MEAN_MOTION_DDOT":0},{"OBJECT_NAME":"HULIANWANG DIGUI-27","OBJECT_ID":"2025-086H","EPOCH":"2026-03-04T03:23:20.024736","MEAN_MOTION":13.24420083,"ECCENTRICITY":0.0001763,"INCLINATION":86.5115,"RA_OF_ASC_NODE":348.4564,"ARG_OF_PERICENTER":92.0123,"MEAN_ANOMALY":268.1213,"EPHEMERIS_TYPE":0,"CLASSIFICATION_TYPE":"U","NORAD_CAT_ID":63694,"ELEMENT_SET_NO":999,"REV_AT_EPOCH":4095,"BSTAR":0.00011375,"MEAN_MOTION_DOT":6.3e-7,"MEAN_MOTION_DDOT":0},{"OBJECT_NAME":"HULIANWANG DIGUI-28","OBJECT_ID":"2025-086J","EPOCH":"2026-03-04T03:44:58.902720","MEAN_MOTION":13.24421396,"ECCENTRICITY":0.0001757,"INCLINATION":86.508,"RA_OF_ASC_NODE":348.3562,"ARG_OF_PERICENTER":91.9421,"MEAN_ANOMALY":268.1914,"EPHEMERIS_TYPE":0,"CLASSIFICATION_TYPE":"U","NORAD_CAT_ID":63695,"ELEMENT_SET_NO":999,"REV_AT_EPOCH":4095,"BSTAR":9.1555e-5,"MEAN_MOTION_DOT":5.4e-7,"MEAN_MOTION_DDOT":0},{"OBJECT_NAME":"HULIANWANG DIGUI-29","OBJECT_ID":"2025-086K","EPOCH":"2026-03-04T03:34:12.870048","MEAN_MOTION":13.24420265,"ECCENTRICITY":0.0001636,"INCLINATION":86.5108,"RA_OF_ASC_NODE":348.4385,"ARG_OF_PERICENTER":92.3615,"MEAN_ANOMALY":267.7706,"EPHEMERIS_TYPE":0,"CLASSIFICATION_TYPE":"U","NORAD_CAT_ID":63696,"ELEMENT_SET_NO":999,"REV_AT_EPOCH":4095,"BSTAR":0.00011176,"MEAN_MOTION_DOT":6.3e-7,"MEAN_MOTION_DDOT":0},{"OBJECT_NAME":"HULIANWANG DIGUI-30","OBJECT_ID":"2025-121A","EPOCH":"2026-03-04T03:44:49.840224","MEAN_MOTION":13.24423384,"ECCENTRICITY":0.0001993,"INCLINATION":86.4946,"RA_OF_ASC_NODE":48.9928,"ARG_OF_PERICENTER":79.1219,"MEAN_ANOMALY":281.0139,"EPHEMERIS_TYPE":0,"CLASSIFICATION_TYPE":"U","NORAD_CAT_ID":64283,"ELEMENT_SET_NO":999,"REV_AT_EPOCH":3625,"BSTAR":6.1318e-5,"MEAN_MOTION_DOT":4.1e-7,"MEAN_MOTION_DDOT":0},{"OBJECT_NAME":"HULIANWANG DIGUI-31","OBJECT_ID":"2025-121B","EPOCH":"2026-03-04T03:34:16.052160","MEAN_MOTION":13.24419589,"ECCENTRICITY":0.0002021,"INCLINATION":86.4966,"RA_OF_ASC_NODE":49.0456,"ARG_OF_PERICENTER":79.3002,"MEAN_ANOMALY":280.8359,"EPHEMERIS_TYPE":0,"CLASSIFICATION_TYPE":"U","NORAD_CAT_ID":64284,"ELEMENT_SET_NO":999,"REV_AT_EPOCH":3625,"BSTAR":9.9125e-5,"MEAN_MOTION_DOT":5.7e-7,"MEAN_MOTION_DDOT":0},{"OBJECT_NAME":"HULIANWANG DIGUI-32","OBJECT_ID":"2025-121C","EPOCH":"2026-03-04T03:22:52.998816","MEAN_MOTION":13.24425273,"ECCENTRICITY":0.0002007,"INCLINATION":86.4907,"RA_OF_ASC_NODE":48.8784,"ARG_OF_PERICENTER":81.3856,"MEAN_ANOMALY":278.7505,"EPHEMERIS_TYPE":0,"CLASSIFICATION_TYPE":"U","NORAD_CAT_ID":64285,"ELEMENT_SET_NO":999,"REV_AT_EPOCH":3625,"BSTAR":0.00013715,"MEAN_MOTION_DOT":7.4e-7,"MEAN_MOTION_DDOT":0}]
