HULIANWANG DIGUI-17     
1 62977U 25030G   26063.08434560 -.00000087  00000+0  80225-4 0  9994
2 62977  50.0047 252.5304 0000734 152.8272 207.2639 13.29338127 51881
HULIANWANG DIGUI-18     
1 62978U 25030H   26063.07597233 -.00000090  00000+0  72323-4 0  9995
2 62978  50.0051 252.4971 0000783 155.9680 204.1229 13.29338193 51881
HULIANWANG DIGUI-19     
1 62979U 25030J   26063.10918609 -.00000082  00000+0  91551-4 0  9999
2 62979  50.0037 252.6260 0000800 149.6136 210.4783 13.29341291 51883
HULIANWANG DIGUI-20     
1 63687U 25086A   26063.16385985  .00000052  00000+0  86628-4 0  9993
2 63687  86.5125 348.4967 0001712  92.1557 267.9774 13.24420070 40975
HULIANWANG DIGUI-21     
1 63688U 25086B   26063.17135337  .00000059  00000+0  10373-3 0  9999
2 63688  86.5153 348.5232 0001600  94.7440 265.3877 13.24421664 40963
HULIANWANG DIGUI-22     
1 63689U 25086C   26063.17891732  .00000070  00000+0  12983-3 0  9990
2 63689  86.5118 348.4241 0001783  92.3797 267.7541 13.24421341 40961
HULIANWANG DIGUI-23     
1 63690U 25086D   26063.19397593  .00000097  00000+0  19177-3 0  9991
2 63690  86.5160 348.5551 0001735  88.4237 271.7096 13.24422173 40961
HULIANWANG DIGUI-24     
1 63691U 25086E   26063.12603882  .00000096  00000+0  18852-3 0  9994
2 63691  86.5167 348.6045 0001761  92.7062 267.4274 13.24420268 40953
HULIANWANG DIGUI-25     
1 63692U 25086F   26063.13357203  .00000086  00000+0  16631-3 0  9991
2 63692  86.5106 348.4245 0001658  91.4686 268.6638 13.24421710 40950
HULIANWANG DIGUI-26     
1 63693U 25086G   26063.11079932  .00000082  00000+0  15762-3 0  9990
2 63693  86.5154 348.5581 0001729  96.9703 263.1628 13.24421154 40958
HULIANWANG DIGUI-27     
1 63694U 25086H   26063.14120399  .00000063  00000+0  11375-3 0  9993
2 63694  86.5115 348.4564 0001763  92.0123 268.1213 13.24420083 40952
HULIANWANG DIGUI-28     
1 63695U 25086J   26063.15623730  .00000054  00000+0  91555-4 0  9991
2 63695  86.5080 348.3562 0001757  91.9421 268.1914 13.24421396 40959
HULIANWANG DIGUI-29     
1 63696U 25086K   26063.14876007  .00000063  00000+0  11176-3 0  9998
2 63696  86.5108 348.4385 0001636  92.3615 267.7706 13.24420265 40959
HULIANWANG DIGUI-30     
1 64283U 25121A   26063.15613241  .00000041  00000+0  61318-4 0  9991
2 64283  86.4946  48.9928 0001993  79.1219 281.0139 13.24423384 36257
HULIANWANG DIGUI-31     
1 64284U 25121B   26063.14879690  .00000057  00000+0  99125-4 0  9997
2 64284  86.4966  49.0456 0002021  79.3002 280.8359 13.24419589 36256
HULIANWANG DIGUI-32     
1 64285U 25121C   26063.14089119  .00000074  00000+0  13715-3 0  9996
2 64285  86.4907  48.8784 0002007  81.3856 278.7505 13.24425273 36253
